SPACEMOBILE-006         
1 67232U 25309A   26127.43146886  .00002593  00000+0  13998-3 0  9998
2 67232  52.9951 158.2700 0011390  13.6744 346.4556 15.18340191 20407
